STARLINK-32471          
1 61968U 24210K   26068.30222462  .00035320  00000+0  12879-2 0  9993
2 61968  42.9997 174.8458 0002720 301.3663  58.6923 15.27553156 74949
TEVEL2-7                
1 63238U 25052AE  26068.66113295  .00019244  00000+0  69668-3 0  9998
2 63238  97.4054 324.3041 0008105 124.6830 235.5175 15.28414096 54803
